IRIDIUM 26              
1 24903U 97043A   25116.94025965  .00000756  00000+0  24823-3 0  9995
2 24903  86.3934 132.1546 0002113  91.7008 268.4431 14.37098008449383
IRIDIUM 22              
1 24907U 97043E   25116.96722014  .00000644  00000+0  21529-3 0  9996
2 24907  86.3945 135.6369 0002302  91.9789 268.1671 14.35917736449422
DUMMY MASS 1            
1 24925U 97048A   25116.59956047  .00000692  00000+0  74303-4 0  9997
2 24925  86.3368 159.1783 0005781 350.7228   9.3889 14.86941386497467
IRIDIUM 29              
1 24944U 97051A   25116.65987897  .00000668  00000+0  22133-3 0  9992
2 24944  86.3992 165.5019 0002496  92.4526 267.6957 14.36420893445878
IRIDIUM 33              
1 24946U 97051C   25116.86432753  .00000448  00000+0  15092-3 0  9995
2 24946  86.3908 164.6725 0005878 235.9604 124.1034 14.34859782445389
IRIDIUM 28              
1 24948U 97051E   25116.66668252  .00000604  00000+0  19600-3 0  9993
2 24948  86.3995 163.0465 0001878  97.2805 262.8606 14.37346848446449
IRIDIUM 36              
1 24967U 97056C   25116.91637658  .00000744  00000+0  24190-3 0  9998
2 24967  86.4028 194.5133 0002261 101.2227 258.9225 14.37565225444858
